CCSDS_OMM_VERS = 2.0
CREATION_DATE  = 
ORIGINATOR     = 

OBJECT_NAME    = SL-14 R/B
OBJECT_ID      = 1986-046B
CENTER_NAME    = EARTH
REF_FRAME      = TEME
TIME_SYSTEM    = UTC
MEAN_ELEMENT_THEORY = SGP/SGP4

EPOCH          = 2026-02-28T10:40:43.408704
MEAN_MOTION    = 14.85579793
ECCENTRICITY   = .0021567
INCLINATION    = 82.4786
RA_OF_ASC_NODE = 88.9197
ARG_OF_PERICENTER = 257.7734
MEAN_ANOMALY   = 102.1067

EPHEMERIS_TYPE = 0
CLASSIFICATION_TYPE = U
NORAD_CAT_ID   = 16792
ELEMENT_SET_NO = 999
REV_AT_EPOCH   = 12503
BSTAR          = .54738E-4
MEAN_MOTION_DOT = .499E-5
MEAN_MOTION_DDOT = 0

CCSDS_OMM_VERS = 2.0
CREATION_DATE  = 
ORIGINATOR     = 

OBJECT_NAME    = SL-14 R/B
OBJECT_ID      = 1986-055B
CENTER_NAME    = EARTH
REF_FRAME      = TEME
TIME_SYSTEM    = UTC
MEAN_ELEMENT_THEORY = SGP/SGP4

EPOCH          = 2026-02-28T11:58:07.344768
MEAN_MOTION    = 14.85632623
ECCENTRICITY   = .0018992
INCLINATION    = 82.5218
RA_OF_ASC_NODE = 135.3120
ARG_OF_PERICENTER = 7.4339
MEAN_ANOMALY   = 3.0382

EPHEMERIS_TYPE = 0
CLASSIFICATION_TYPE = U
NORAD_CAT_ID   = 16882
ELEMENT_SET_NO = 999
REV_AT_EPOCH   = 11800
BSTAR          = .5499E-4
MEAN_MOTION_DOT = .502E-5
MEAN_MOTION_DDOT = 0

CCSDS_OMM_VERS = 2.0
CREATION_DATE  = 
ORIGINATOR     = 

OBJECT_NAME    = AJISAI (EGS)
OBJECT_ID      = 1986-061A
CENTER_NAME    = EARTH
REF_FRAME      = TEME
TIME_SYSTEM    = UTC
MEAN_ELEMENT_THEORY = SGP/SGP4

EPOCH          = 2026-02-28T11:51:49.105440
MEAN_MOTION    = 12.44515453
ECCENTRICITY   = .0011246
INCLINATION    = 50.0082
RA_OF_ASC_NODE = 121.6244
ARG_OF_PERICENTER = 263.3237
MEAN_ANOMALY   = 229.3191

EPHEMERIS_TYPE = 0
CLASSIFICATION_TYPE = U
NORAD_CAT_ID   = 16908
ELEMENT_SET_NO = 999
REV_AT_EPOCH   = 46685
BSTAR          = -.21396E-4
MEAN_MOTION_DOT = -.1E-5
MEAN_MOTION_DDOT = 0

CCSDS_OMM_VERS = 2.0
CREATION_DATE  = 
ORIGINATOR     = 

OBJECT_NAME    = COSMOS 1812
OBJECT_ID      = 1987-003A
CENTER_NAME    = EARTH
REF_FRAME      = TEME
TIME_SYSTEM    = UTC
MEAN_ELEMENT_THEORY = SGP/SGP4

EPOCH          = 2026-02-28T12:40:32.630016
MEAN_MOTION    = 16.15248282
ECCENTRICITY   = .0006036
INCLINATION    = 82.4735
RA_OF_ASC_NODE = 206.1252
ARG_OF_PERICENTER = 287.9230
MEAN_ANOMALY   = 72.1398

EPHEMERIS_TYPE = 0
CLASSIFICATION_TYPE = U
NORAD_CAT_ID   = 17295
ELEMENT_SET_NO = 999
REV_AT_EPOCH   = 14300
BSTAR          = .77081E-3
MEAN_MOTION_DOT = .1010158E-1
MEAN_MOTION_DDOT = .67745E-3

CCSDS_OMM_VERS = 2.0
CREATION_DATE  = 
ORIGINATOR     = 

OBJECT_NAME    = SL-14 R/B
OBJECT_ID      = 1987-024B
CENTER_NAME    = EARTH
REF_FRAME      = TEME
TIME_SYSTEM    = UTC
MEAN_ELEMENT_THEORY = SGP/SGP4

EPOCH          = 2026-02-28T11:33:40.919040
MEAN_MOTION    = 14.86121884
ECCENTRICITY   = .0016745
INCLINATION    = 82.5257
RA_OF_ASC_NODE = 101.4202
ARG_OF_PERICENTER = 293.2142
MEAN_ANOMALY   = 66.7310

EPHEMERIS_TYPE = 0
CLASSIFICATION_TYPE = U
NORAD_CAT_ID   = 17567
ELEMENT_SET_NO = 999
REV_AT_EPOCH   = 8676
BSTAR          = .50538E-4
MEAN_MOTION_DOT = .468E-5
MEAN_MOTION_DDOT = 0

CCSDS_OMM_VERS = 2.0
CREATION_DATE  = 
ORIGINATOR     = 

OBJECT_NAME    = COSMOS 1833
OBJECT_ID      = 1987-027A
CENTER_NAME    = EARTH
REF_FRAME      = TEME
TIME_SYSTEM    = UTC
MEAN_ELEMENT_THEORY = SGP/SGP4

EPOCH          = 2026-02-28T05:35:21.985440
MEAN_MOTION    = 14.13056603
ECCENTRICITY   = .002466
INCLINATION    = 70.9233
RA_OF_ASC_NODE = 345.8927
ARG_OF_PERICENTER = 227.5380
MEAN_ANOMALY   = 132.3657

EPHEMERIS_TYPE = 0
CLASSIFICATION_TYPE = U
NORAD_CAT_ID   = 17589
ELEMENT_SET_NO = 999
REV_AT_EPOCH   = 898
BSTAR          = -.402E-4
MEAN_MOTION_DOT = -.123E-5
MEAN_MOTION_DDOT = 0

CCSDS_OMM_VERS = 2.0
CREATION_DATE  = 
ORIGINATOR     = 

OBJECT_NAME    = SL-16 R/B
OBJECT_ID      = 1987-027B
CENTER_NAME    = EARTH
REF_FRAME      = TEME
TIME_SYSTEM    = UTC
MEAN_ELEMENT_THEORY = SGP/SGP4

EPOCH          = 2026-02-28T02:13:37.623648
MEAN_MOTION    = 14.17167129
ECCENTRICITY   = .00038919
INCLINATION    = 71.0026
RA_OF_ASC_NODE = 296.7194
ARG_OF_PERICENTER = 162.1686
MEAN_ANOMALY   = 197.9575

EPHEMERIS_TYPE = 0
CLASSIFICATION_TYPE = U
NORAD_CAT_ID   = 17590
ELEMENT_SET_NO = 999
REV_AT_EPOCH   = 1398
BSTAR          = -.3749748E-4
MEAN_MOTION_DOT = -.124E-5
MEAN_MOTION_DDOT = 0

CCSDS_OMM_VERS = 2.0
CREATION_DATE  = 
ORIGINATOR     = 

OBJECT_NAME    = SL-14 R/B
OBJECT_ID      = 1987-038B
CENTER_NAME    = EARTH
REF_FRAME      = TEME
TIME_SYSTEM    = UTC
MEAN_ELEMENT_THEORY = SGP/SGP4

EPOCH          = 2026-02-28T09:42:36.554400
MEAN_MOTION    = 14.85359569
ECCENTRICITY   = .0018865
INCLINATION    = 82.5018
RA_OF_ASC_NODE = 305.5545
ARG_OF_PERICENTER = 190.9323
MEAN_ANOMALY   = 169.1486

EPHEMERIS_TYPE = 0
CLASSIFICATION_TYPE = U
NORAD_CAT_ID   = 17912
ELEMENT_SET_NO = 999
REV_AT_EPOCH   = 7785
BSTAR          = .5251E-4
MEAN_MOTION_DOT = .477E-5
MEAN_MOTION_DDOT = 0

CCSDS_OMM_VERS = 2.0
CREATION_DATE  = 
ORIGINATOR     = 

OBJECT_NAME    = COSMOS 1844
OBJECT_ID      = 1987-041A
CENTER_NAME    = EARTH
REF_FRAME      = TEME
TIME_SYSTEM    = UTC
MEAN_ELEMENT_THEORY = SGP/SGP4

EPOCH          = 2026-02-28T10:04:07.577760
MEAN_MOTION    = 14.14553111
ECCENTRICITY   = .0029523
INCLINATION    = 70.8990
RA_OF_ASC_NODE = 53.7283
ARG_OF_PERICENTER = 32.0508
MEAN_ANOMALY   = 328.2401

EPHEMERIS_TYPE = 0
CLASSIFICATION_TYPE = U
NORAD_CAT_ID   = 17973
ELEMENT_SET_NO = 999
REV_AT_EPOCH   = 227
BSTAR          = .16498E-4
MEAN_MOTION_DOT = -.17E-6
MEAN_MOTION_DDOT = 0

CCSDS_OMM_VERS = 2.0
CREATION_DATE  = 
ORIGINATOR     = 

OBJECT_NAME    = SL-14 R/B
OBJECT_ID      = 1987-055B
CENTER_NAME    = EARTH
REF_FRAME      = TEME
TIME_SYSTEM    = UTC
MEAN_ELEMENT_THEORY = SGP/SGP4

EPOCH          = 2026-02-28T07:34:46.623360
MEAN_MOTION    = 14.85615851
ECCENTRICITY   = .0021875
INCLINATION    = 82.5024
RA_OF_ASC_NODE = 357.8633
ARG_OF_PERICENTER = 47.5822
MEAN_ANOMALY   = 312.7240

EPHEMERIS_TYPE = 0
CLASSIFICATION_TYPE = U
NORAD_CAT_ID   = 18153
ELEMENT_SET_NO = 999
REV_AT_EPOCH   = 6854
BSTAR          = .71913E-4
MEAN_MOTION_DOT = .649E-5
MEAN_MOTION_DDOT = 0

CCSDS_OMM_VERS = 2.0
CREATION_DATE  = 
ORIGINATOR     = 

OBJECT_NAME    = COSMOS 1867
OBJECT_ID      = 1987-060A
CENTER_NAME    = EARTH
REF_FRAME      = TEME
TIME_SYSTEM    = UTC
MEAN_ELEMENT_THEORY = SGP/SGP4

EPOCH          = 2026-02-28T11:58:32.469024
MEAN_MOTION    = 14.31501296
ECCENTRICITY   = .0014359
INCLINATION    = 65.0122
RA_OF_ASC_NODE = 332.4431
ARG_OF_PERICENTER = 278.0925
MEAN_ANOMALY   = 81.8530

EPHEMERIS_TYPE = 0
CLASSIFICATION_TYPE = U
NORAD_CAT_ID   = 18187
ELEMENT_SET_NO = 999
REV_AT_EPOCH   = 1862
BSTAR          = .22124E-4
MEAN_MOTION_DOT = -.41E-6
MEAN_MOTION_DDOT = 0

CCSDS_OMM_VERS = 2.0
CREATION_DATE  = 
ORIGINATOR     = 

OBJECT_NAME    = SL-14 R/B
OBJECT_ID      = 1988-001B
CENTER_NAME    = EARTH
REF_FRAME      = TEME
TIME_SYSTEM    = UTC
MEAN_ELEMENT_THEORY = SGP/SGP4

EPOCH          = 2026-02-28T10:41:02.662944
MEAN_MOTION    = 14.85514101
ECCENTRICITY   = .0016577
INCLINATION    = 82.5137
RA_OF_ASC_NODE = 204.0534
ARG_OF_PERICENTER = 268.9247
MEAN_ANOMALY   = 91.0070

EPHEMERIS_TYPE = 0
CLASSIFICATION_TYPE = U
NORAD_CAT_ID   = 18749
ELEMENT_SET_NO = 999
REV_AT_EPOCH   = 4065
BSTAR          = .69532E-4
MEAN_MOTION_DOT = .625E-5
MEAN_MOTION_DDOT = 0

