SL-14 R/B               
1 16792U 86046B   26059.44494686  .00000499  00000+0  54738-4 0  9998
2 16792  82.4786  88.9197 0021567 257.7734 102.1067 14.85579793125036
SL-14 R/B               
1 16882U 86055B   26059.49869612  .00000502  00000+0  54990-4 0  9993
2 16882  82.5218 135.3120 0018992   7.4339   3.0382 14.85632623118009
AJISAI (EGS)            
1 16908U 86061A   26059.49431835 -.00000100  00000+0 -21396-4 0  9991
2 16908  50.0082 121.6244 0011246 263.3237 229.3191 12.44515453466851
COSMOS 1812             
1 17295U 87003A   26059.52815544  .01010158  67745-3  77081-3 0  9992
2 17295  82.4735 206.1252 0006036 287.9230  72.1398 16.15248282143006
SL-14 R/B               
1 17567U 87024B   26059.48172360  .00000468  00000+0  50538-4 0  9992
2 17567  82.5257 101.4202 0016745 293.2142  66.7310 14.86121884 86766
COSMOS 1833             
1 17589U 87027A   26059.23289335 -.00000123  00000+0 -40200-4 0  9998
2 17589  70.9233 345.8927 0024660 227.5380 132.3657 14.13056603  8980
SL-16 R/B               
1 17590U 87027B   26059.09279657 -.00000124  00000+0 -37497-4 0  9995
2 17590  71.0026 296.7194 0003891 162.1686 197.9575 14.17167129 13982
SL-14 R/B               
1 17912U 87038B   26059.40458975  .00000477  00000+0  52510-4 0  9994
2 17912  82.5018 305.5545 0018865 190.9323 169.1486 14.85359569 77855
COSMOS 1844             
1 17973U 87041A   26059.41953215 -.00000017  00000+0  16498-4 0  9999
2 17973  70.8990  53.7283 0029523  32.0508 328.2401 14.14553111  2276
SL-14 R/B               
1 18153U 87055B   26059.31581740  .00000649  00000+0  71913-4 0  9997
2 18153  82.5024 357.8633 0021875  47.5822 312.7240 14.85615851 68543
COSMOS 1867             
1 18187U 87060A   26059.49898691 -.00000041  00000+0  22124-4 0  9992
2 18187  65.0122 332.4431 0014359 278.0925  81.8530 14.31501296 18622
SL-14 R/B               
1 18749U 88001B   26059.44516971  .00000625  00000+0  69532-4 0  9996
2 18749  82.5137 204.0534 0016577 268.9247  91.0070 14.85514101 40651
